{
"type": "FeatureCollection",
"name": "boundary",
"crs": { "type": "name", "properties": { "name": "urn:ogc:def:crs:OGC:1.3:CRS84" } },
"features": [
{ "type": "Feature", "properties": { }, "geometry": { "type": "Polygon", "coordinates": [ [ [ 11.2093764, 48.1129304 ], [ 11.2106698, 48.1123471 ], [ 11.2116447, 48.1118073 ], [ 11.2119992, 48.1115985 ], [ 11.212253, 48.111425 ], [ 11.2125027, 48.1110083 ], [ 11.2126635, 48.1108031 ], [ 11.2128708, 48.1105063 ], [ 11.213082, 48.1101776 ], [ 11.2138884, 48.1091892 ], [ 11.2140753, 48.1090577 ], [ 11.2148752, 48.1085789 ], [ 11.2154766, 48.108265 ], [ 11.2164862, 48.108012 ], [ 11.217211, 48.1078557 ], [ 11.2179983, 48.1075776 ], [ 11.2187146, 48.1073432 ], [ 11.219609, 48.1069014 ], [ 11.2209376, 48.1066649 ], [ 11.2210869, 48.1066291 ], [ 11.2231492, 48.1061306 ], [ 11.2239845, 48.1059107 ], [ 11.224685, 48.1055344 ], [ 11.2252486, 48.1052471 ], [ 11.2254967, 48.1047393 ], [ 11.2257097, 48.104469 ], [ 11.2255809, 48.1042387 ], [ 11.2255138, 48.1041084 ], [ 11.2257675, 48.1040073 ], [ 11.226572, 48.1036033 ], [ 11.2267138, 48.1035644 ], [ 11.2274415, 48.1031108 ], [ 11.2282791, 48.1025439 ], [ 11.228726, 48.1022192 ], [ 11.2296895, 48.1014965 ], [ 11.2300159, 48.1012133 ], [ 11.2307153, 48.1007192 ], [ 11.2311992, 48.1004005 ], [ 11.2315686, 48.1001897 ], [ 11.2318695, 48.0998116 ], [ 11.2319021, 48.0997347 ], [ 11.2320629, 48.0997611 ], [ 11.2324168, 48.0998251 ], [ 11.2324455, 48.0996714 ], [ 11.232728, 48.0993525 ], [ 11.2331234, 48.0991155 ], [ 11.2334355, 48.0988815 ], [ 11.2337723, 48.0985358 ], [ 11.234468, 48.0980407 ], [ 11.2353373, 48.0974697 ], [ 11.2354312, 48.0972491 ], [ 11.2356902, 48.0971016 ], [ 11.2363259, 48.0967248 ], [ 11.236518, 48.0966926 ], [ 11.2369556, 48.0966666 ], [ 11.2369819, 48.0966685 ], [ 11.2370071, 48.0966735 ], [ 11.2381118, 48.0970594 ], [ 11.2383197, 48.0971556 ], [ 11.2385976, 48.0971913 ], [ 11.2400588, 48.0975989 ], [ 11.2400904, 48.0976165 ], [ 11.2401143, 48.0976378 ], [ 11.2401284, 48.0976602 ], [ 11.2402853, 48.0978036 ], [ 11.2404246, 48.0979849 ], [ 11.2413534, 48.0977985 ], [ 11.2424032, 48.0974673 ], [ 11.2432912, 48.0973745 ], [ 11.2440093, 48.0973535 ], [ 11.2443098, 48.0973569 ], [ 11.2444603, 48.0973643 ], [ 11.2447699, 48.0971798 ], [ 11.2453753, 48.0971174 ], [ 11.2456349, 48.0970856 ], [ 11.2459221, 48.0970901 ], [ 11.2462705, 48.0971755 ], [ 11.2477378, 48.097628 ], [ 11.2476857, 48.0977635 ], [ 11.2476858, 48.097787 ], [ 11.2476945, 48.0978097 ], [ 11.2477116, 48.0978302 ], [ 11.2477358, 48.0978472 ], [ 11.2477656, 48.0978596 ], [ 11.2518163, 48.0987555 ], [ 11.2530877, 48.099017 ], [ 11.2531213, 48.0990184 ], [ 11.2531549, 48.0990145 ], [ 11.2531863, 48.0990055 ], [ 11.2532138, 48.0989918 ], [ 11.2532404, 48.0989683 ], [ 11.2540265, 48.0990839 ], [ 11.2541722, 48.0991168 ], [ 11.2545327, 48.0991897 ], [ 11.2545601, 48.0991995 ], [ 11.2550668, 48.099284 ], [ 11.2553602, 48.0993308 ], [ 11.2558514, 48.0994215 ], [ 11.256088, 48.0993574 ], [ 11.2564015, 48.0992726 ], [ 11.2568405, 48.0992873 ], [ 11.2574295, 48.0992748 ], [ 11.2577873, 48.0992644 ], [ 11.258192, 48.0992458 ], [ 11.258597, 48.0992336 ], [ 11.2588163, 48.0992482 ], [ 11.2589965, 48.0992797 ], [ 11.2591926, 48.0993336 ], [ 11.2594132, 48.0994019 ], [ 11.2598692, 48.0995882 ], [ 11.2602005, 48.0997154 ], [ 11.2611376, 48.1000235 ], [ 11.2616415, 48.1001891 ], [ 11.2618094, 48.1002315 ], [ 11.2619019, 48.1002549 ], [ 11.2643131, 48.1008642 ], [ 11.2655925, 48.1010989 ], [ 11.2663335, 48.1013932 ], [ 11.266795, 48.1017529 ], [ 11.2666971, 48.0995676 ], [ 11.2670005, 48.0991466 ], [ 11.2670166, 48.0991155 ], [ 11.2671045, 48.0988929 ], [ 11.267205, 48.0985829 ], [ 11.2673603, 48.0982931 ], [ 11.2675225, 48.097964 ], [ 11.2676113, 48.0977992 ], [ 11.2676096, 48.0977637 ], [ 11.2676166, 48.0974989 ], [ 11.26752, 48.0963223 ], [ 11.2674798, 48.0960723 ], [ 11.2674089, 48.0955281 ], [ 11.2672451, 48.0950837 ], [ 11.2669593, 48.0945013 ], [ 11.2667372, 48.0939821 ], [ 11.267245, 48.0940109 ], [ 11.2674671, 48.0939907 ], [ 11.268174, 48.09388 ], [ 11.2686363, 48.0937894 ], [ 11.269312, 48.0942071 ], [ 11.2700145, 48.0942204 ], [ 11.2702785, 48.0942145 ], [ 11.2708654, 48.0942297 ], [ 11.2718845, 48.094091 ], [ 11.2721918, 48.0940019 ], [ 11.2727046, 48.0938526 ], [ 11.2728294, 48.0938165 ], [ 11.2729609, 48.0937781 ], [ 11.2732634, 48.0936872 ], [ 11.273386, 48.0936464 ], [ 11.2734771, 48.0936136 ], [ 11.2735636, 48.0936333 ], [ 11.2745142, 48.0937983 ], [ 11.2751746, 48.0938712 ], [ 11.2757371, 48.0938763 ], [ 11.2758665, 48.0938689 ], [ 11.2761505, 48.0938469 ], [ 11.2763314, 48.0937905 ], [ 11.2764686, 48.0937477 ], [ 11.2769596, 48.0935003 ], [ 11.2770142, 48.0934467 ], [ 11.2780008, 48.0924724 ], [ 11.2782179, 48.0923713 ], [ 11.2787014, 48.092146 ], [ 11.2790311, 48.0919988 ], [ 11.2791802, 48.0919322 ], [ 11.2791887, 48.091919 ], [ 11.2794395, 48.0917165 ], [ 11.2797126, 48.0915163 ], [ 11.2798363, 48.0914522 ], [ 11.2799207, 48.0914086 ], [ 11.2801252, 48.0912993 ], [ 11.2803287, 48.0912164 ], [ 11.2803749, 48.0911933 ], [ 11.2806184, 48.0910725 ], [ 11.2806535, 48.0910553 ], [ 11.2815681, 48.090695 ], [ 11.2817857, 48.0905982 ], [ 11.2819189, 48.0905405 ], [ 11.2821283, 48.0905198 ], [ 11.2822687, 48.0905119 ], [ 11.2823665, 48.0905064 ], [ 11.2823937, 48.0905106 ], [ 11.2824788, 48.0905291 ], [ 11.2826178, 48.0905592 ], [ 11.2827184, 48.0905809 ], [ 11.2829582, 48.0906247 ], [ 11.2830852, 48.09065 ], [ 11.2833215, 48.090701 ], [ 11.2844765, 48.0909258 ], [ 11.2851175, 48.0910558 ], [ 11.2851984, 48.0909902 ], [ 11.2853521, 48.0908684 ], [ 11.2856437, 48.0906375 ], [ 11.2859976, 48.0903571 ], [ 11.2861113, 48.09025 ], [ 11.2862028, 48.0901637 ], [ 11.2862387, 48.0901297 ], [ 11.2863521, 48.0900222 ], [ 11.2864731, 48.0899063 ], [ 11.2866851, 48.0897097 ], [ 11.2870232, 48.0895478 ], [ 11.2871898, 48.0894026 ], [ 11.2873741, 48.0892324 ], [ 11.2876572, 48.0890218 ], [ 11.2881095, 48.0886831 ], [ 11.2881569, 48.0887035 ], [ 11.2883155, 48.0887369 ], [ 11.2883754, 48.0887864 ], [ 11.2900778, 48.0898574 ], [ 11.2901986, 48.0899421 ], [ 11.2902353, 48.0899677 ], [ 11.2909623, 48.0899008 ], [ 11.2910975, 48.0898835 ], [ 11.2914553, 48.0898376 ], [ 11.2925037, 48.0897032 ], [ 11.2930197, 48.0897477 ], [ 11.2937329, 48.0898089 ], [ 11.2940978, 48.0898014 ], [ 11.2947262, 48.0899739 ], [ 11.2954276, 48.0900709 ], [ 11.2960889, 48.0903312 ], [ 11.2971417, 48.0906257 ], [ 11.2983269, 48.0909299 ], [ 11.2985424, 48.0909795 ], [ 11.2986775, 48.0910127 ], [ 11.2989008, 48.0910265 ], [ 11.2998393, 48.0910262 ], [ 11.3000844, 48.0910229 ], [ 11.3002593, 48.0910377 ], [ 11.3010274, 48.0911027 ], [ 11.3014641, 48.0911159 ], [ 11.3035398, 48.0911043 ], [ 11.3036595, 48.091149 ], [ 11.3036678, 48.0911503 ], [ 11.3036959, 48.0911551 ], [ 11.3037334, 48.0911547 ], [ 11.3037697, 48.0911478 ], [ 11.3038019, 48.0911349 ], [ 11.30428, 48.0911079 ], [ 11.3048234, 48.0910975 ], [ 11.3056562, 48.0910662 ], [ 11.3060915, 48.0910618 ], [ 11.3065308, 48.0910381 ], [ 11.307561, 48.0909171 ], [ 11.3081471, 48.0908537 ], [ 11.3086446, 48.0908996 ], [ 11.3094888, 48.0909676 ], [ 11.3099224, 48.0910139 ], [ 11.3103597, 48.0910245 ], [ 11.3109488, 48.0910273 ], [ 11.3110025, 48.0910178 ], [ 11.3110504, 48.0909996 ], [ 11.3110897, 48.0909737 ], [ 11.3111177, 48.0909416 ], [ 11.3111251, 48.0909236 ], [ 11.3111323, 48.0909061 ], [ 11.3111328, 48.0908691 ], [ 11.3111189, 48.0908331 ], [ 11.3110916, 48.090801 ], [ 11.3110057, 48.090768 ], [ 11.3109291, 48.0907459 ], [ 11.3106558, 48.0905469 ], [ 11.3104953, 48.0903961 ], [ 11.3104112, 48.0902242 ], [ 11.3103788, 48.090042 ], [ 11.3103805, 48.0899582 ], [ 11.3110915, 48.0900372 ], [ 11.3146274, 48.0913219 ], [ 11.314862, 48.09136 ], [ 11.3158567, 48.0899448 ], [ 11.3160499, 48.0896861 ], [ 11.3165499, 48.0890003 ], [ 11.3168537, 48.0886699 ], [ 11.3171491, 48.0884138 ], [ 11.3172581, 48.0882749 ], [ 11.3172192, 48.0881215 ], [ 11.317197, 48.0880117 ], [ 11.317223, 48.0876081 ], [ 11.3172542, 48.0874502 ], [ 11.3172977, 48.0873401 ], [ 11.3175537, 48.0873228 ], [ 11.3180365, 48.0872718 ], [ 11.3189215, 48.0870449 ], [ 11.3196503, 48.0868716 ], [ 11.3203734, 48.0867652 ], [ 11.3208298, 48.0867453 ], [ 11.3212663, 48.0867993 ], [ 11.3217602, 48.0868824 ], [ 11.3222371, 48.086974 ], [ 11.3232861, 48.0872916 ], [ 11.3243196, 48.0877493 ], [ 11.3252644, 48.0884651 ], [ 11.3253558, 48.0885201 ], [ 11.325477, 48.0885908 ], [ 11.3255166, 48.0886088 ], [ 11.3259397, 48.0889526 ], [ 11.3259546, 48.0889723 ], [ 11.3260134, 48.0891339 ], [ 11.3258956, 48.0892726 ], [ 11.3257781, 48.0894099 ], [ 11.3257202, 48.0895741 ], [ 11.3256762, 48.0896697 ], [ 11.325538, 48.0900157 ], [ 11.3253572, 48.0902486 ], [ 11.3250721, 48.0903604 ], [ 11.324565, 48.0904526 ], [ 11.32402, 48.090435 ], [ 11.3233555, 48.0904396 ], [ 11.3229969, 48.0904041 ], [ 11.3222909, 48.0902463 ], [ 11.3207665, 48.0898886 ], [ 11.3198847, 48.0904195 ], [ 11.3188385, 48.0910004 ], [ 11.3173986, 48.0916873 ], [ 11.317335, 48.0917534 ], [ 11.3166675, 48.0924499 ], [ 11.3164761, 48.0926792 ], [ 11.3164373, 48.0933488 ], [ 11.3164329, 48.0935254 ], [ 11.316438, 48.0946822 ], [ 11.3164053, 48.0954175 ], [ 11.3164356, 48.0955075 ], [ 11.316442, 48.0955855 ], [ 11.3162968, 48.0960685 ], [ 11.3180241, 48.0960909 ], [ 11.3189945, 48.0960635 ], [ 11.319872, 48.0960557 ], [ 11.3209728, 48.0961513 ], [ 11.3214123, 48.0961928 ], [ 11.3220343, 48.0962906 ], [ 11.3227096, 48.0963845 ], [ 11.3235123, 48.0964861 ], [ 11.3242243, 48.0966119 ], [ 11.3247993, 48.0967208 ], [ 11.3251134, 48.0968005 ], [ 11.3256429, 48.096955 ], [ 11.3262659, 48.0964488 ], [ 11.32703, 48.0960497 ], [ 11.3272641, 48.0959087 ], [ 11.3275463, 48.0957515 ], [ 11.327675, 48.0957972 ], [ 11.3289576, 48.0962171 ], [ 11.3291173, 48.0962673 ], [ 11.3298526, 48.0964986 ], [ 11.3299262, 48.0965308 ], [ 11.330698, 48.0968705 ], [ 11.3309344, 48.0969769 ], [ 11.3309777, 48.0969964 ], [ 11.3312112, 48.096923 ], [ 11.3319899, 48.0966533 ], [ 11.3327131, 48.0965618 ], [ 11.3329556, 48.0964115 ], [ 11.3331471, 48.0961979 ], [ 11.3333365, 48.0962297 ], [ 11.333917, 48.0963271 ], [ 11.3347392, 48.0951181 ], [ 11.3348019, 48.0950282 ], [ 11.3352095, 48.0952561 ], [ 11.3360799, 48.0958137 ], [ 11.3361226, 48.0958411 ], [ 11.3366435, 48.0962423 ], [ 11.3366528, 48.0962503 ], [ 11.336665, 48.0962671 ], [ 11.3366722, 48.0962806 ], [ 11.3366763, 48.0962977 ], [ 11.3366736, 48.0963228 ], [ 11.3366613, 48.0963465 ], [ 11.3366321, 48.0963779 ], [ 11.3366466, 48.0964074 ], [ 11.3369149, 48.0967735 ], [ 11.3372181, 48.0972385 ], [ 11.3373521, 48.097503 ], [ 11.3375109, 48.0977 ], [ 11.3377592, 48.0979482 ], [ 11.3379117, 48.0981181 ], [ 11.338, 48.0982582 ], [ 11.3380047, 48.098269 ], [ 11.3380288, 48.0983641 ], [ 11.3380277, 48.0984443 ], [ 11.3380252, 48.0984567 ], [ 11.3379831, 48.0985593 ], [ 11.3379731, 48.0985738 ], [ 11.337899, 48.0986426 ], [ 11.3378896, 48.0986554 ], [ 11.3374659, 48.0990512 ], [ 11.3374283, 48.0990913 ], [ 11.3375315, 48.0991438 ], [ 11.3376522, 48.0991637 ], [ 11.337761, 48.0991654 ], [ 11.3377937, 48.0991659 ], [ 11.3380728, 48.0991431 ], [ 11.338389, 48.099092 ], [ 11.340333, 48.0988532 ], [ 11.3419927, 48.0986273 ], [ 11.3454273, 48.0981851 ], [ 11.3454131, 48.0983759 ], [ 11.3454005, 48.0984463 ], [ 11.3453874, 48.0985449 ], [ 11.3453676, 48.098644 ], [ 11.3453534, 48.098687 ], [ 11.3452186, 48.0990965 ], [ 11.3450514, 48.0999106 ], [ 11.3448778, 48.1007641 ], [ 11.345263, 48.1009241 ], [ 11.3463154, 48.1007805 ], [ 11.3476671, 48.100661 ], [ 11.3478209, 48.1006516 ], [ 11.3479524, 48.1014626 ], [ 11.3480436, 48.1016105 ], [ 11.348048, 48.1016331 ], [ 11.3481096, 48.1019541 ], [ 11.3481771, 48.1026185 ], [ 11.3482624, 48.1031273 ], [ 11.3483117, 48.1035607 ], [ 11.3482643, 48.1036461 ], [ 11.3481907, 48.1037473 ], [ 11.3475611, 48.1046147 ], [ 11.3484661, 48.1055812 ], [ 11.3485084, 48.1057658 ], [ 11.348537, 48.1058743 ], [ 11.3485114, 48.105886 ], [ 11.3481661, 48.1059932 ], [ 11.347472, 48.106121 ], [ 11.346964, 48.106222 ], [ 11.3466116, 48.1062941 ], [ 11.3457284, 48.1065375 ], [ 11.3455387, 48.1065621 ], [ 11.3446947, 48.1066668 ], [ 11.3432916, 48.1068871 ], [ 11.3431681, 48.1069051 ], [ 11.3434842, 48.107144 ], [ 11.3437062, 48.1073183 ], [ 11.3435741, 48.1075039 ], [ 11.3435172, 48.1075823 ], [ 11.3434612, 48.1076617 ], [ 11.343334, 48.1078403 ], [ 11.3403187, 48.1094808 ], [ 11.3386492, 48.1104071 ], [ 11.3364387, 48.1113922 ], [ 11.3357447, 48.1116754 ], [ 11.3358021, 48.111732 ], [ 11.3356712, 48.1118611 ], [ 11.3356127, 48.1118845 ], [ 11.3354993, 48.1118969 ], [ 11.3353394, 48.1119638 ], [ 11.3353274, 48.1119713 ], [ 11.335202, 48.1121865 ], [ 11.3348761, 48.1118476 ], [ 11.334773, 48.1118225 ], [ 11.3346478, 48.1117921 ], [ 11.3344196, 48.1117367 ], [ 11.3343491, 48.1115259 ], [ 11.3343394, 48.1114404 ], [ 11.3343345, 48.1113973 ], [ 11.3343394, 48.1113269 ], [ 11.3343211, 48.1113206 ], [ 11.3342254, 48.1112783 ], [ 11.3340869, 48.1111971 ], [ 11.3337357, 48.1109433 ], [ 11.3335129, 48.1107978 ], [ 11.3332816, 48.1106427 ], [ 11.3332176, 48.1105966 ], [ 11.3330667, 48.1104654 ], [ 11.332921, 48.110369 ], [ 11.3328016, 48.110303 ], [ 11.3327528, 48.1102787 ], [ 11.3326546, 48.1103562 ], [ 11.3320831, 48.1107435 ], [ 11.3319895, 48.1108203 ], [ 11.3317615, 48.1109566 ], [ 11.33156, 48.111101 ], [ 11.3310926, 48.1114346 ], [ 11.3309128, 48.1115734 ], [ 11.3306562, 48.1118857 ], [ 11.3301593, 48.1128103 ], [ 11.3290141, 48.1130523 ], [ 11.328823, 48.1131135 ], [ 11.3276216, 48.1136732 ], [ 11.3258666, 48.1132822 ], [ 11.3240892, 48.1128861 ], [ 11.3240976, 48.1131022 ], [ 11.324222, 48.1141969 ], [ 11.3241259, 48.1142858 ], [ 11.3241337, 48.1144171 ], [ 11.3236773, 48.114337 ], [ 11.3235312, 48.1143146 ], [ 11.3232451, 48.1142707 ], [ 11.3227801, 48.1142463 ], [ 11.3223823, 48.1142601 ], [ 11.3218258, 48.1142818 ], [ 11.3214169, 48.1143086 ], [ 11.3209293, 48.1143021 ], [ 11.3202979, 48.1142377 ], [ 11.3199452, 48.1142191 ], [ 11.3198001, 48.1142357 ], [ 11.3196328, 48.1142997 ], [ 11.3192109, 48.114584 ], [ 11.3189857, 48.1147546 ], [ 11.318631, 48.1148103 ], [ 11.3171554, 48.1149555 ], [ 11.3154154, 48.1151628 ], [ 11.3148941, 48.1152199 ], [ 11.3146816, 48.1152343 ], [ 11.3145522, 48.1152674 ], [ 11.3146079, 48.1153606 ], [ 11.3144528, 48.1158979 ], [ 11.3144124, 48.1162268 ], [ 11.3143075, 48.1170429 ], [ 11.3142329, 48.1174673 ], [ 11.31421, 48.1176317 ], [ 11.3142425, 48.117884 ], [ 11.3138864, 48.1178764 ], [ 11.3134126, 48.1178816 ], [ 11.3127393, 48.1179944 ], [ 11.3125921, 48.1179858 ], [ 11.312442, 48.1179736 ], [ 11.3124489, 48.1178681 ], [ 11.3124779, 48.1177238 ], [ 11.3124857, 48.1176253 ], [ 11.3125068, 48.1175228 ], [ 11.3124689, 48.1174036 ], [ 11.3123846, 48.1173147 ], [ 11.3121977, 48.1172526 ], [ 11.3116651, 48.1171814 ], [ 11.3116123, 48.1171768 ], [ 11.3107425, 48.1171027 ], [ 11.309725, 48.1170178 ], [ 11.3085062, 48.1168877 ], [ 11.3082637, 48.1175567 ], [ 11.3093147, 48.1176576 ], [ 11.3094906, 48.1176732 ], [ 11.3094713, 48.1178202 ], [ 11.3094428, 48.1179634 ], [ 11.3092106, 48.1179429 ], [ 11.3075658, 48.1177856 ], [ 11.3073943, 48.1177691 ], [ 11.3069288, 48.1190687 ], [ 11.3071797, 48.1190627 ], [ 11.3086285, 48.1190284 ], [ 11.3085811, 48.1191738 ], [ 11.3085375, 48.119321 ], [ 11.3061136, 48.1193815 ], [ 11.3061159, 48.1194637 ], [ 11.3059679, 48.1199641 ], [ 11.3058881, 48.1202911 ], [ 11.305819, 48.1207091 ], [ 11.3057568, 48.1211716 ], [ 11.3057311, 48.1214403 ], [ 11.3056876, 48.1215826 ], [ 11.3056407, 48.1216853 ], [ 11.3055497, 48.1217924 ], [ 11.3053976, 48.1219039 ], [ 11.3052458, 48.1220856 ], [ 11.3051988, 48.1221906 ], [ 11.3052165, 48.1223285 ], [ 11.3052989, 48.1225275 ], [ 11.3052859, 48.1226514 ], [ 11.3051847, 48.1227772 ], [ 11.3049619, 48.1229819 ], [ 11.3048799, 48.1230646 ], [ 11.304864, 48.1230622 ], [ 11.3048118, 48.1231597 ], [ 11.3047309, 48.123298 ], [ 11.3046374, 48.123476 ], [ 11.3044871, 48.1238594 ], [ 11.3038569, 48.1258734 ], [ 11.3038276, 48.1259697 ], [ 11.3040792, 48.1260181 ], [ 11.3044149, 48.1261314 ], [ 11.3044386, 48.1267212 ], [ 11.3044065, 48.1270676 ], [ 11.3043641, 48.1272124 ], [ 11.30405, 48.1271126 ], [ 11.3036892, 48.1269442 ], [ 11.3025979, 48.1264851 ], [ 11.302076, 48.1269365 ], [ 11.3016584, 48.1272104 ], [ 11.3011436, 48.1274044 ], [ 11.3010078, 48.1276567 ], [ 11.3007714, 48.1275631 ], [ 11.3000985, 48.1272633 ], [ 11.2995819, 48.1270171 ], [ 11.2991221, 48.1269225 ], [ 11.298817, 48.1269929 ], [ 11.2984542, 48.1276014 ], [ 11.2981717, 48.1279968 ], [ 11.2957873, 48.1287037 ], [ 11.2957736, 48.1286933 ], [ 11.29562, 48.1285761 ], [ 11.2953761, 48.1283901 ], [ 11.2940944, 48.1290574 ], [ 11.2936903, 48.1287888 ], [ 11.2931928, 48.1284613 ], [ 11.2928076, 48.1281787 ], [ 11.2926892, 48.1280494 ], [ 11.2926466, 48.1280121 ], [ 11.2925134, 48.1280991 ], [ 11.2924433, 48.1281464 ], [ 11.2923096, 48.1282316 ], [ 11.2921953, 48.1283059 ], [ 11.2909162, 48.1291371 ], [ 11.2890717, 48.1303604 ], [ 11.2879896, 48.1311871 ], [ 11.2872433, 48.1310028 ], [ 11.2866171, 48.1308606 ], [ 11.286251, 48.1307841 ], [ 11.285981, 48.1307383 ], [ 11.2858213, 48.1307511 ], [ 11.2855127, 48.1307862 ], [ 11.2852334, 48.1307751 ], [ 11.2849684, 48.1307486 ], [ 11.2849093, 48.1307428 ], [ 11.2845777, 48.1306895 ], [ 11.2842356, 48.1306131 ], [ 11.2839713, 48.130521 ], [ 11.2833077, 48.13025 ], [ 11.2829888, 48.1301482 ], [ 11.2826664, 48.1300488 ], [ 11.2823961, 48.1299845 ], [ 11.2821497, 48.1299308 ], [ 11.2821326, 48.1299271 ], [ 11.2813918, 48.1298272 ], [ 11.2810029, 48.129792 ], [ 11.2804496, 48.1297073 ], [ 11.2796491, 48.1295289 ], [ 11.279591, 48.1297362 ], [ 11.27951, 48.1299271 ], [ 11.2794726, 48.1299936 ], [ 11.2794292, 48.1300709 ], [ 11.2789462, 48.1312212 ], [ 11.2777444, 48.1310026 ], [ 11.2767388, 48.1307749 ], [ 11.2750397, 48.1302696 ], [ 11.2744183, 48.1308903 ], [ 11.2742009, 48.1310752 ], [ 11.2737133, 48.1314278 ], [ 11.2734501, 48.1325602 ], [ 11.2734471, 48.1326707 ], [ 11.2734216, 48.1338484 ], [ 11.2743702, 48.1342494 ], [ 11.2754304, 48.1346977 ], [ 11.2753622, 48.1348799 ], [ 11.2749295, 48.1360348 ], [ 11.2748541, 48.1362362 ], [ 11.2747111, 48.136172 ], [ 11.2745726, 48.1364374 ], [ 11.2737616, 48.1360929 ], [ 11.2735571, 48.136006 ], [ 11.2731495, 48.1358295 ], [ 11.2729326, 48.1359112 ], [ 11.2728242, 48.1359373 ], [ 11.2727391, 48.1359352 ], [ 11.2726303, 48.1359123 ], [ 11.2724809, 48.1358592 ], [ 11.2713036, 48.1353766 ], [ 11.27078, 48.1351931 ], [ 11.2705725, 48.1351407 ], [ 11.2703178, 48.1351004 ], [ 11.2699091, 48.1351172 ], [ 11.269373, 48.1351813 ], [ 11.2685757, 48.1352507 ], [ 11.2678711, 48.135272 ], [ 11.2676604, 48.1355141 ], [ 11.2676527, 48.1355117 ], [ 11.2673019, 48.135533 ], [ 11.2670994, 48.1355408 ], [ 11.2664244, 48.1356087 ], [ 11.2661739, 48.135645 ], [ 11.2658607, 48.1357139 ], [ 11.2656539, 48.1357971 ], [ 11.2651268, 48.1360279 ], [ 11.2643827, 48.1363314 ], [ 11.2641753, 48.1363693 ], [ 11.2640098, 48.1363841 ], [ 11.2633614, 48.1363656 ], [ 11.2626914, 48.1363296 ], [ 11.2622843, 48.1362936 ], [ 11.260636, 48.1360153 ], [ 11.2605785, 48.1353366 ], [ 11.2605055, 48.1350806 ], [ 11.2604521, 48.134808 ], [ 11.2604429, 48.1347037 ], [ 11.2602824, 48.1343133 ], [ 11.260282, 48.1341673 ], [ 11.2601622, 48.1340948 ], [ 11.2600423, 48.1340222 ], [ 11.2598394, 48.1338184 ], [ 11.259235, 48.1340472 ], [ 11.2589521, 48.1341498 ], [ 11.2583768, 48.1342841 ], [ 11.2581231, 48.1343345 ], [ 11.2577991, 48.1343988 ], [ 11.2577597, 48.1344042 ], [ 11.2567247, 48.1345485 ], [ 11.2548664, 48.1348475 ], [ 11.2547034, 48.1348697 ], [ 11.2542222, 48.1349223 ], [ 11.2539258, 48.1349451 ], [ 11.253586, 48.1350054 ], [ 11.2532665, 48.1350849 ], [ 11.2531241, 48.1351258 ], [ 11.253019, 48.1351251 ], [ 11.2529913, 48.1351284 ], [ 11.2527547, 48.1351889 ], [ 11.2525687, 48.1352575 ], [ 11.2524803, 48.1352857 ], [ 11.2521619, 48.1353774 ], [ 11.2521203, 48.1353908 ], [ 11.2515578, 48.1355673 ], [ 11.25082, 48.1348881 ], [ 11.2505061, 48.1345992 ], [ 11.250466, 48.1345633 ], [ 11.2501577, 48.1344593 ], [ 11.2496781, 48.1343253 ], [ 11.2495568, 48.1341549 ], [ 11.2490503, 48.1339391 ], [ 11.248479, 48.1338243 ], [ 11.2478448, 48.1336633 ], [ 11.2478032, 48.1336457 ], [ 11.2475846, 48.1335387 ], [ 11.2475134, 48.1334735 ], [ 11.2468462, 48.1328628 ], [ 11.2467635, 48.1327871 ], [ 11.2464659, 48.1324535 ], [ 11.2462906, 48.1322102 ], [ 11.2461626, 48.1319744 ], [ 11.2458708, 48.1316694 ], [ 11.2455564, 48.1314673 ], [ 11.2453596, 48.1314421 ], [ 11.244961, 48.1313909 ], [ 11.244905, 48.1314346 ], [ 11.2448209, 48.1314604 ], [ 11.2440508, 48.1318621 ], [ 11.2436225, 48.131938 ], [ 11.2431604, 48.1319166 ], [ 11.2426925, 48.132004 ], [ 11.2422298, 48.132018 ], [ 11.2423011, 48.1317063 ], [ 11.2426178, 48.1312203 ], [ 11.2426843, 48.1309663 ], [ 11.2425961, 48.1305668 ], [ 11.2425112, 48.1304822 ], [ 11.2420177, 48.1304606 ], [ 11.2415951, 48.1304107 ], [ 11.2414248, 48.1301733 ], [ 11.2413016, 48.1299362 ], [ 11.2411368, 48.1296808 ], [ 11.2409159, 48.1294726 ], [ 11.2406489, 48.1292221 ], [ 11.2405413, 48.1291524 ], [ 11.240322, 48.1290099 ], [ 11.2399716, 48.1288636 ], [ 11.2395038, 48.1287376 ], [ 11.2389254, 48.1286161 ], [ 11.238025, 48.1284418 ], [ 11.2379108, 48.128444 ], [ 11.236992, 48.1289351 ], [ 11.236847, 48.128944 ], [ 11.2365843, 48.1289458 ], [ 11.2362042, 48.1289636 ], [ 11.2359835, 48.1290317 ], [ 11.2356664, 48.1291406 ], [ 11.2354153, 48.1291696 ], [ 11.2350577, 48.1291595 ], [ 11.2344867, 48.1290918 ], [ 11.2343214, 48.12905 ], [ 11.2341838, 48.1289787 ], [ 11.2340902, 48.1289212 ], [ 11.2338775, 48.1287614 ], [ 11.2336636, 48.1286081 ], [ 11.2336428, 48.1285979 ], [ 11.2335065, 48.1285523 ], [ 11.2335295, 48.1284104 ], [ 11.2335966, 48.1283226 ], [ 11.2340835, 48.1278523 ], [ 11.2340779, 48.1278115 ], [ 11.2341763, 48.127764 ], [ 11.2342099, 48.1276155 ], [ 11.2342162, 48.1275873 ], [ 11.2339732, 48.126491 ], [ 11.2337609, 48.1264559 ], [ 11.2336019, 48.1264296 ], [ 11.2328013, 48.1265531 ], [ 11.2321704, 48.1268807 ], [ 11.2318748, 48.1270534 ], [ 11.2315274, 48.1271621 ], [ 11.2310528, 48.127227 ], [ 11.2303006, 48.1272801 ], [ 11.2296311, 48.1274218 ], [ 11.2292944, 48.1275097 ], [ 11.2285838, 48.1276951 ], [ 11.2277374, 48.127612 ], [ 11.227651, 48.1276035 ], [ 11.2268571, 48.1274403 ], [ 11.2266595, 48.1273997 ], [ 11.2266073, 48.1273282 ], [ 11.2263177, 48.126775 ], [ 11.2260123, 48.1263749 ], [ 11.2257979, 48.1260105 ], [ 11.2256678, 48.1256568 ], [ 11.225682, 48.1252476 ], [ 11.2256898, 48.125227 ], [ 11.2257292, 48.1251761 ], [ 11.2258168, 48.125003 ], [ 11.2260095, 48.1245821 ], [ 11.2260479, 48.1244323 ], [ 11.2260741, 48.1242607 ], [ 11.2260978, 48.1241908 ], [ 11.2258929, 48.1237147 ], [ 11.2258493, 48.1236135 ], [ 11.2254167, 48.1237826 ], [ 11.225129, 48.1238369 ], [ 11.2247703, 48.1238355 ], [ 11.2242307, 48.1238187 ], [ 11.2233369, 48.1236921 ], [ 11.2230484, 48.1236533 ], [ 11.2230216, 48.1234597 ], [ 11.2230361, 48.1232847 ], [ 11.2230903, 48.12308 ], [ 11.2229412, 48.1230687 ], [ 11.2224902, 48.1230343 ], [ 11.2215866, 48.1230191 ], [ 11.2210792, 48.123023 ], [ 11.2205477, 48.1227055 ], [ 11.2202803, 48.122529 ], [ 11.219996, 48.1223086 ], [ 11.2198228, 48.1223157 ], [ 11.2188862, 48.1223539 ], [ 11.2183961, 48.1223739 ], [ 11.2176384, 48.1219768 ], [ 11.2179557, 48.121296 ], [ 11.2178725, 48.1210933 ], [ 11.2178253, 48.1209675 ], [ 11.2176378, 48.1209098 ], [ 11.2168442, 48.1206251 ], [ 11.2165197, 48.1204386 ], [ 11.2163076, 48.1202772 ], [ 11.2161317, 48.1201586 ], [ 11.2160587, 48.1201135 ], [ 11.2159378, 48.1200535 ], [ 11.2158171, 48.1199936 ], [ 11.2155183, 48.1198607 ], [ 11.2154446, 48.1198279 ], [ 11.2147635, 48.1195888 ], [ 11.2144146, 48.1196237 ], [ 11.2138154, 48.1196241 ], [ 11.213774, 48.1196122 ], [ 11.2136265, 48.1195507 ], [ 11.2135369, 48.1196335 ], [ 11.2134472, 48.1197162 ], [ 11.2133731, 48.1196854 ], [ 11.2132312, 48.119655 ], [ 11.2130813, 48.119553 ], [ 11.2128151, 48.1194039 ], [ 11.2124964, 48.1192096 ], [ 11.2122317, 48.1190784 ], [ 11.2117514, 48.118805 ], [ 11.2116407, 48.1187353 ], [ 11.211014, 48.118338 ], [ 11.2108714, 48.1182488 ], [ 11.2106511, 48.1181194 ], [ 11.2104088, 48.1179554 ], [ 11.2102039, 48.1178255 ], [ 11.2098081, 48.1173845 ], [ 11.2096686, 48.1172561 ], [ 11.2093849, 48.1170079 ], [ 11.2096849, 48.1166764 ], [ 11.2095158, 48.1165041 ], [ 11.2103017, 48.1161402 ], [ 11.2105152, 48.1163656 ], [ 11.2110642, 48.1161572 ], [ 11.2114259, 48.1162933 ], [ 11.2119959, 48.1166075 ], [ 11.2121098, 48.1168321 ], [ 11.212314, 48.1169122 ], [ 11.2131862, 48.1168471 ], [ 11.2133998, 48.1164603 ], [ 11.2137096, 48.1158061 ], [ 11.2140012, 48.1157493 ], [ 11.2142174, 48.1156012 ], [ 11.2153557, 48.1159259 ], [ 11.2155262, 48.1156596 ], [ 11.2156486, 48.1155189 ], [ 11.2156788, 48.1154842 ], [ 11.2159674, 48.1152188 ], [ 11.216324, 48.114914 ], [ 11.2164661, 48.1149072 ], [ 11.2166195, 48.1149145 ], [ 11.2167734, 48.1149221 ], [ 11.2168779, 48.1146743 ], [ 11.2171733, 48.1143963 ], [ 11.2169688, 48.1142581 ], [ 11.2166531, 48.1141074 ], [ 11.2164956, 48.1140342 ], [ 11.216045, 48.1138972 ], [ 11.215973, 48.1138753 ], [ 11.2152757, 48.1139018 ], [ 11.2144532, 48.1140573 ], [ 11.2137005, 48.1142356 ], [ 11.2128674, 48.1145178 ], [ 11.2124257, 48.1140495 ], [ 11.2119693, 48.1135653 ], [ 11.211881, 48.1134615 ], [ 11.2118002, 48.1133662 ], [ 11.2116511, 48.1132491 ], [ 11.2115954, 48.1132146 ], [ 11.2115535, 48.1131886 ], [ 11.2106513, 48.1133991 ], [ 11.2102994, 48.113564 ], [ 11.2101754, 48.113678 ], [ 11.2101368, 48.1138872 ], [ 11.2099914, 48.1139518 ], [ 11.2098763, 48.1139659 ], [ 11.2097472, 48.1136942 ], [ 11.2096676, 48.1134825 ], [ 11.2096314, 48.1133902 ], [ 11.2093764, 48.1129304 ] ] ] } }
]
}
